{"type": "FeatureCollection", "features": [{"type": "Feature", "properties": {"kind": "fire_station", "kind_label": "消防站", "name": "光大消防中队"}, "geometry": {"type": "Point", "coordinates": [113.2559561, 23.0868815]}}, {"type": "Feature", "properties": {"kind": "fire_station", "kind_label": "消防站", "name": "消防站"}, "geometry": {"type": "Point", "coordinates": [113.2478715, 23.1266262]}}, {"type": "Feature", "properties": {"kind": "fire_station", "kind_label": "消防站", "name": "消防站"}, "geometry": {"type": "Point", "coordinates": [113.2623106, 23.0953366]}}, {"type": "Feature", "properties": {"kind": "fire_station", "kind_label": "消防站", "name": "消防站"}, "geometry": {"type": "Point", "coordinates": [113.2567866, 23.1365547]}}, {"type": "Feature", "properties": {"kind": "fire_station", "kind_label": "消防站", "name": "东山中队"}, "geometry": {"type": "Point", "coordinates": [113.2866418, 23.1271287]}}, {"type": "Feature", "properties": {"kind": "fire_station", "kind_label": "消防站", "name": "广州市消防局"}, "geometry": {"type": "Point", "coordinates": [113.2650093, 23.1244478]}}, {"type": "Feature", "properties": {"kind": "fire_station", "kind_label": "消防站", "name": "消防站"}, "geometry": {"type": "Point", "coordinates": [113.2449073, 23.1097944]}}, {"type": "Feature", "properties": {"kind": "fire_station", "kind_label": "消防站", "name": "江南西消防队"}, "geometry": {"type": "Point", "coordinates": [113.2623611, 23.0953287]}}, {"type": "Feature", "properties": {"kind": "fire_station", "kind_label": "消防站", "name": "广州消防支队水上消防中队"}, "geometry": {"type": "Point", "coordinates": [113.2400905, 23.0969983]}}, {"type": "Feature", "properties": {"kind": "fire_station", "kind_label": "消防站", "name": "荔湾区消防大队"}, "geometry": {"type": "Point", "coordinates": [113.2344809, 23.126194]}}, {"type": "Feature", "properties": {"kind": "fire_station", "kind_label": "消防站", "name": "海珠区消防中队"}, "geometry": {"type": "Point", "coordinates": [113.2519779, 23.105826]}}, {"type": "Feature", "properties": {"kind": "fire_station", "kind_label": "消防站", "name": "消防站"}, "geometry": {"type": "Point", "coordinates": [113.2619225, 23.0854146]}}, {"type": "Feature", "properties": {"kind": "fire_station", "kind_label": "消防站", "name": "广州市荔湾区多宝消防救援站"}, "geometry": {"type": "Point", "coordinates": [113.2265785, 23.1155885]}}, {"type": "Feature", "properties": {"kind": "fire_station", "kind_label": "消防站", "name": "消防站"}, "geometry": {"type": "Point", "coordinates": [113.2294045, 23.1286416]}}, {"type": "Feature", "properties": {"kind": "hospital", "kind_label": "医院", "name": "越秀区妇幼保健院"}, "geometry": {"type": "Point", "coordinates": [113.2758279, 23.1303377]}}, {"type": "Feature", "properties": {"kind": "hospital", "kind_label": "医院", "name": "广东省心血管病医院"}, "geometry": {"type": "Point", "coordinates": [113.2814934, 23.1271804]}}, {"type": "Feature", "properties": {"kind": "hospital", "kind_label": "医院", "name": "广州临床重症救治中心"}, "geometry": {"type": "Point", "coordinates": [113.2527731, 23.1344902]}}, {"type": "Feature", "properties": {"kind": "hospital", "kind_label": "医院", "name": "广州东大肛肠医院"}, "geometry": {"type": "Point", "coordinates": [113.2702116, 23.1281462]}}, {"type": "Feature", "properties": {"kind": "hospital", "kind_label": "医院", "name": "大塘街社区卫生服务中心"}, "geometry": {"type": "Point", "coordinates": [113.2707011, 23.1279972]}}, {"type": "Feature", "properties": {"kind": "hospital", "kind_label": "医院", "name": "越秀区第二中医医院"}, "geometry": {"type": "Point", "coordinates": [113.2728152, 23.122699]}}, {"type": "Feature", "properties": {"kind": "hospital", "kind_label": "医院", "name": "海幢街社区卫生服务中心"}, "geometry": {"type": "Point", "coordinates": [113.2618079, 23.1019498]}}, {"type": "Feature", "properties": {"kind": "hospital", "kind_label": "医院", "name": "龙凤街将军直社区卫生服务站"}, "geometry": {"type": "Point", "coordinates": [113.2536434, 23.102308]}}, {"type": "Feature", "properties": {"kind": "hospital", "kind_label": "医院", "name": "英东门诊医疗中心"}, "geometry": {"type": "Point", "coordinates": [113.2525257, 23.1338983]}}, {"type": "Feature", "properties": {"kind": "hospital", "kind_label": "医院", "name": "广州消化疾病中心"}, "geometry": {"type": "Point", "coordinates": [113.2517787, 23.1338381]}}, {"type": "Feature", "properties": {"kind": "hospital", "kind_label": "医院", "name": "海珠区妇幼保健院儿童保健中心"}, "geometry": {"type": "Point", "coordinates": [113.2552602, 23.1055255]}}, {"type": "Feature", "properties": {"kind": "hospital", "kind_label": "医院", "name": "医院"}, "geometry": {"type": "Point", "coordinates": [113.247384, 23.1218386]}}, {"type": "Feature", "properties": {"kind": "hospital", "kind_label": "医院", "name": "中山大学肿瘤医院预防医学部"}, "geometry": {"type": "Point", "coordinates": [113.2808229, 23.1355106]}}, {"type": "Feature", "properties": {"kind": "hospital", "kind_label": "医院", "name": "广州医科大学附属脑科医院（荔湾院区）"}, "geometry": {"type": "Point", "coordinates": [113.2369302, 23.1295264]}}, {"type": "Feature", "properties": {"kind": "hospital", "kind_label": "医院", "name": "广州医科大学附属第一医院(海印分院)"}, "geometry": {"type": "Point", "coordinates": [113.2833329, 23.1027225]}}, {"type": "Feature", "properties": {"kind": "hospital", "kind_label": "医院", "name": "越秀区儿童医院"}, "geometry": {"type": "Point", "coordinates": [113.2629121, 23.1228071]}}, {"type": "Feature", "properties": {"kind": "hospital", "kind_label": "医院", "name": "广州医科大学附属第一医院"}, "geometry": {"type": "Point", "coordinates": [113.2561057, 23.1141761]}}, {"type": "Feature", "properties": {"kind": "hospital", "kind_label": "医院", "name": "广州医科大学附属口腔医院"}, "geometry": {"type": "Point", "coordinates": [113.2281986, 23.1160439]}}, {"type": "Feature", "properties": {"kind": "hospital", "kind_label": "医院", "name": "荔湾区天佑医院"}, "geometry": {"type": "Point", "coordinates": [113.2272844, 23.1166057]}}, {"type": "Feature", "properties": {"kind": "hospital", "kind_label": "医院", "name": "金花街社区卫生服务中心"}, "geometry": {"type": "Point", "coordinates": [113.243838, 23.1336176]}}, {"type": "Feature", "properties": {"kind": "hospital", "kind_label": "医院", "name": "南方医科大学口腔医院(盘福院区)"}, "geometry": {"type": "Point", "coordinates": [113.2542708, 23.1376039]}}, {"type": "Feature", "properties": {"kind": "hospital", "kind_label": "医院", "name": "广州医科大学附属第一医院"}, "geometry": {"type": "Point", "coordinates": [113.229721, 23.0845031]}}, {"type": "Feature", "properties": {"kind": "hospital", "kind_label": "医院", "name": "海珠区沙园街社区卫生服务中心(西院区)"}, "geometry": {"type": "Point", "coordinates": [113.2568642, 23.0879604]}}, {"type": "Feature", "properties": {"kind": "hospital", "kind_label": "医院", "name": "广东省皮肤病医院"}, "geometry": {"type": "Point", "coordinates": [113.2729308, 23.1441859]}}, {"type": "Feature", "properties": {"kind": "hospital", "kind_label": "医院", "name": "广州市皮肤病防治所中山四路门诊部"}, "geometry": {"type": "Point", "coordinates": [113.2693931, 23.12948]}}, {"type": "Feature", "properties": {"kind": "hospital", "kind_label": "医院", "name": "广东省人民医院"}, "geometry": {"type": "Point", "coordinates": [113.2828323, 23.1271404]}}, {"type": "Feature", "properties": {"kind": "hospital", "kind_label": "医院", "name": "广州市皮肤病医院"}, "geometry": {"type": "Point", "coordinates": [113.278783, 23.1459487]}}, {"type": "Feature", "properties": {"kind": "hospital", "kind_label": "医院", "name": "广东省第二中医院"}, "geometry": {"type": "Point", "coordinates": [113.2797515, 23.1457132]}}, {"type": "Feature", "properties": {"kind": "hospital", "kind_label": "医院", "name": "中山大学附属肿瘤医院"}, "geometry": {"type": "Point", "coordinates": [113.2845564, 23.1341287]}}, {"type": "Feature", "properties": {"kind": "hospital", "kind_label": "医院", "name": "中山大学附属第一医院"}, "geometry": {"type": "Point", "coordinates": [113.2855723, 23.1292745]}}, {"type": "Feature", "properties": {"kind": "hospital", "kind_label": "医院", "name": "中山大学附属口腔医院"}, "geometry": {"type": "Point", "coordinates": [113.2779274, 23.1326075]}}, {"type": "Feature", "properties": {"kind": "hospital", "kind_label": "医院", "name": "正骨医院"}, "geometry": {"type": "Point", "coordinates": [113.2672978, 23.134033]}}, {"type": "Feature", "properties": {"kind": "hospital", "kind_label": "医院", "name": "广州市第一人民医院"}, "geometry": {"type": "Point", "coordinates": [113.2511865, 23.133973]}}, {"type": "Feature", "properties": {"kind": "hospital", "kind_label": "医院", "name": "广州医科大学附属肿瘤医院"}, "geometry": {"type": "Point", "coordinates": [113.2878063, 23.1499525]}}, {"type": "Feature", "properties": {"kind": "hospital", "kind_label": "医院", "name": "广州市胸科医院"}, "geometry": {"type": "Point", "coordinates": [113.28332, 23.1501746]}}, {"type": "Feature", "properties": {"kind": "hospital", "kind_label": "医院", "name": "中国人民解放军南部战区总医院"}, "geometry": {"type": "Point", "coordinates": [113.2492868, 23.1454245]}}, {"type": "Feature", "properties": {"kind": "hospital", "kind_label": "医院", "name": "爱尔眼科医院"}, "geometry": {"type": "Point", "coordinates": [113.2592736, 23.1484152]}}, {"type": "Feature", "properties": {"kind": "hospital", "kind_label": "医院", "name": "广州市妇婴医院"}, "geometry": {"type": "Point", "coordinates": [113.2490256, 23.1264278]}}, {"type": "Feature", "properties": {"kind": "hospital", "kind_label": "医院", "name": "广州医科大学附属脑科医院（芳村总院）"}, "geometry": {"type": "Point", "coordinates": [113.2349344, 23.1012694]}}, {"type": "Feature", "properties": {"kind": "hospital", "kind_label": "医院", "name": "广东省中医院"}, "geometry": {"type": "Point", "coordinates": [113.2511958, 23.1209706]}}, {"type": "Feature", "properties": {"kind": "hospital", "kind_label": "医院", "name": "孙逸仙纪念医院"}, "geometry": {"type": "Point", "coordinates": [113.2506738, 23.1123852]}}, {"type": "Feature", "properties": {"kind": "hospital", "kind_label": "医院", "name": "广州医科大学附属第三医院"}, "geometry": {"type": "Point", "coordinates": [113.2288362, 23.1205162]}}, {"type": "Feature", "properties": {"kind": "hospital", "kind_label": "医院", "name": "广州医科大学第二附属医院"}, "geometry": {"type": "Point", "coordinates": [113.2732223, 23.0927875]}}, {"type": "Feature", "properties": {"kind": "hospital", "kind_label": "医院", "name": "南方医科大学口腔医院"}, "geometry": {"type": "Point", "coordinates": [113.2713939, 23.0917264]}}, {"type": "Feature", "properties": {"kind": "hospital", "kind_label": "医院", "name": "珠江医院"}, "geometry": {"type": "Point", "coordinates": [113.2639535, 23.0835728]}}, {"type": "Feature", "properties": {"kind": "hospital", "kind_label": "医院", "name": "医院"}, "geometry": {"type": "Point", "coordinates": [113.2648783, 23.0962057]}}, {"type": "Feature", "properties": {"kind": "hospital", "kind_label": "医院", "name": "广州医科大学附属第一医院"}, "geometry": {"type": "Point", "coordinates": [113.256917, 23.1154319]}}, {"type": "Feature", "properties": {"kind": "hospital", "kind_label": "医院", "name": "民生医院"}, "geometry": {"type": "Point", "coordinates": [113.2709607, 23.1351923]}}, {"type": "Feature", "properties": {"kind": "hospital", "kind_label": "医院", "name": "广州市儿童医院"}, "geometry": {"type": "Point", "coordinates": [113.2484802, 23.1221042]}}, {"type": "Feature", "properties": {"kind": "hospital", "kind_label": "医院", "name": "海珠区红十字会医院"}, "geometry": {"type": "Point", "coordinates": [113.252449, 23.095652]}}, {"type": "Feature", "properties": {"kind": "hospital", "kind_label": "医院", "name": "海珠区妇幼保健院"}, "geometry": {"type": "Point", "coordinates": [113.2606623, 23.0985961]}}, {"type": "Feature", "properties": {"kind": "hospital", "kind_label": "医院", "name": "广州市中医医院"}, "geometry": {"type": "Point", "coordinates": [113.2388829, 23.11189]}}, {"type": "Feature", "properties": {"kind": "hospital", "kind_label": "医院", "name": "广州市越秀区妇幼保健院"}, "geometry": {"type": "Point", "coordinates": [113.2649349, 23.1320069]}}, {"type": "Feature", "properties": {"kind": "hospital", "kind_label": "医院", "name": "越秀区中医院"}, "geometry": {"type": "Point", "coordinates": [113.2632502, 23.1328688]}}, {"type": "Feature", "properties": {"kind": "hospital", "kind_label": "医院", "name": "广东省中医院芳村分院"}, "geometry": {"type": "Point", "coordinates": [113.2214431, 23.099841]}}, {"type": "Feature", "properties": {"kind": "hospital", "kind_label": "医院", "name": "广州市红十字会医院"}, "geometry": {"type": "Point", "coordinates": [113.2568069, 23.1072335]}}, {"type": "Feature", "properties": {"kind": "hospital", "kind_label": "医院", "name": "南方医科大学口腔医院(海珠广场院区)"}, "geometry": {"type": "Point", "coordinates": [113.2610375, 23.1188163]}}, {"type": "Feature", "properties": {"kind": "hospital", "kind_label": "医院", "name": "江南中社区卫生服务中心"}, "geometry": {"type": "Point", "coordinates": [113.2577731, 23.0950282]}}, {"type": "Feature", "properties": {"kind": "hospital", "kind_label": "医院", "name": "荔湾区妇幼保健院"}, "geometry": {"type": "Point", "coordinates": [113.2161796, 23.0814382]}}, {"type": "Feature", "properties": {"kind": "hospital", "kind_label": "医院", "name": "广州中医药大学附属骨伤科医院"}, "geometry": {"type": "Point", "coordinates": [113.2647908, 23.0962197]}}, {"type": "Feature", "properties": {"kind": "hospital", "kind_label": "医院", "name": "中山大学附属眼科医院"}, "geometry": {"type": "Point", "coordinates": [113.2874929, 23.1359258]}}, {"type": "Feature", "properties": {"kind": "hospital", "kind_label": "医院", "name": "芳村中医医院山村门诊部"}, "geometry": {"type": "Point", "coordinates": [113.2238329, 23.1051129]}}, {"type": "Feature", "properties": {"kind": "hospital", "kind_label": "医院", "name": "广东省人民医院肿瘤医院"}, "geometry": {"type": "Point", "coordinates": [113.2525277, 23.1234039]}}, {"type": "Feature", "properties": {"kind": "hospital", "kind_label": "医院", "name": "医院"}, "geometry": {"type": "Point", "coordinates": [113.2290096, 23.1193455]}}, {"type": "Feature", "properties": {"kind": "hospital", "kind_label": "医院", "name": "穗华口腔荔湾院区"}, "geometry": {"type": "Point", "coordinates": [113.2430269, 23.1116798]}}, {"type": "Feature", "properties": {"kind": "hospital", "kind_label": "医院", "name": "广州医科大学附属第一医院(大坦沙院区)"}, "geometry": {"type": "Point", "coordinates": [113.2156947, 23.1354844]}}, {"type": "Feature", "properties": {"kind": "hospital", "kind_label": "医院", "name": "广州医科大学附属第三医院荔湾医院"}, "geometry": {"type": "Point", "coordinates": [113.236551, 23.1290351]}}, {"type": "Feature", "properties": {"kind": "hospital", "kind_label": "医院", "name": "医院"}, "geometry": {"type": "Point", "coordinates": [113.2421658, 23.1237348]}}, {"type": "Feature", "properties": {"kind": "hospital", "kind_label": "医院", "name": "广州医科大学附属口腔医院"}, "geometry": {"type": "Point", "coordinates": [113.2290159, 23.1152358]}}, {"type": "Feature", "properties": {"kind": "hospital", "kind_label": "医院", "name": "广州市荔湾区人民医院"}, "geometry": {"type": "Point", "coordinates": [113.2296601, 23.0845396]}}, {"type": "Feature", "properties": {"kind": "hospital", "kind_label": "医院", "name": "广州市海珠区中医院"}, "geometry": {"type": "Point", "coordinates": [113.2699531, 23.1039708]}}, {"type": "Feature", "properties": {"kind": "hospital", "kind_label": "医院", "name": "广州医科大学附属第一医院(交运院区)"}, "geometry": {"type": "Point", "coordinates": [113.2550153, 23.1180483]}}, {"type": "Feature", "properties": {"kind": "hospital", "kind_label": "医院", "name": "沙园街社区卫生服务中心(东院区)"}, "geometry": {"type": "Point", "coordinates": [113.2595781, 23.0905026]}}, {"type": "Feature", "properties": {"kind": "police", "kind_label": "派出所", "name": "登峰街派出所"}, "geometry": {"type": "Point", "coordinates": [113.2736301, 23.1496068]}}, {"type": "Feature", "properties": {"kind": "police", "kind_label": "派出所", "name": "建设派出所"}, "geometry": {"type": "Point", "coordinates": [113.2790861, 23.1369338]}}, {"type": "Feature", "properties": {"kind": "police", "kind_label": "派出所", "name": "广州市公安局越秀区分局综合办证大厅"}, "geometry": {"type": "Point", "coordinates": [113.2829772, 23.1247725]}}, {"type": "Feature", "properties": {"kind": "police", "kind_label": "派出所", "name": "大东派出所"}, "geometry": {"type": "Point", "coordinates": [113.2828692, 23.1250145]}}, {"type": "Feature", "properties": {"kind": "police", "kind_label": "派出所", "name": "华乐派出所"}, "geometry": {"type": "Point", "coordinates": [113.2805099, 23.1440424]}}, {"type": "Feature", "properties": {"kind": "police", "kind_label": "派出所", "name": "广州市公安局"}, "geometry": {"type": "Point", "coordinates": [113.2595491, 23.1264852]}}, {"type": "Feature", "properties": {"kind": "police", "kind_label": "派出所", "name": "龙凤派出所"}, "geometry": {"type": "Point", "coordinates": [113.2503869, 23.090659]}}, {"type": "Feature", "properties": {"kind": "police", "kind_label": "派出所", "name": "派出所"}, "geometry": {"type": "Point", "coordinates": [113.2687409, 23.1334163]}}, {"type": "Feature", "properties": {"kind": "police", "kind_label": "派出所", "name": "市刑警队"}, "geometry": {"type": "Point", "coordinates": [113.2668142, 23.1310019]}}, {"type": "Feature", "properties": {"kind": "police", "kind_label": "派出所", "name": "派出所"}, "geometry": {"type": "Point", "coordinates": [113.2554373, 23.0867236]}}, {"type": "Feature", "properties": {"kind": "police", "kind_label": "派出所", "name": "警务室"}, "geometry": {"type": "Point", "coordinates": [113.2527753, 23.1339784]}}, {"type": "Feature", "properties": {"kind": "police", "kind_label": "派出所", "name": "派出所"}, "geometry": {"type": "Point", "coordinates": [113.2547204, 23.1363104]}}, {"type": "Feature", "properties": {"kind": "police", "kind_label": "派出所", "name": "北京派出所"}, "geometry": {"type": "Point", "coordinates": [113.2604972, 23.1231883]}}, {"type": "Feature", "properties": {"kind": "police", "kind_label": "派出所", "name": "公安大院"}, "geometry": {"type": "Point", "coordinates": [113.2678243, 23.1242187]}}, {"type": "Feature", "properties": {"kind": "police", "kind_label": "派出所", "name": "中华人民共和国洲头嘴出入境边防检查站"}, "geometry": {"type": "Point", "coordinates": [113.2427447, 23.1039328]}}, {"type": "Feature", "properties": {"kind": "police", "kind_label": "派出所", "name": "龙津派出所"}, "geometry": {"type": "Point", "coordinates": [113.2460927, 23.1266034]}}, {"type": "Feature", "properties": {"kind": "police", "kind_label": "派出所", "name": "派出所"}, "geometry": {"type": "Point", "coordinates": [113.2577643, 23.13089]}}, {"type": "Feature", "properties": {"kind": "police", "kind_label": "派出所", "name": "光塔派出所"}, "geometry": {"type": "Point", "coordinates": [113.2508024, 23.1216097]}}, {"type": "Feature", "properties": {"kind": "police", "kind_label": "派出所", "name": "派出所"}, "geometry": {"type": "Point", "coordinates": [113.2701411, 23.1334127]}}, {"type": "Feature", "properties": {"kind": "police", "kind_label": "派出所", "name": "南华西街派出所德和新社区警务室"}, "geometry": {"type": "Point", "coordinates": [113.2457655, 23.1035645]}}, {"type": "Feature", "properties": {"kind": "police", "kind_label": "派出所", "name": "白云派出所"}, "geometry": {"type": "Point", "coordinates": [113.2765581, 23.1211234]}}, {"type": "Feature", "properties": {"kind": "police", "kind_label": "派出所", "name": "茶滘派出所"}, "geometry": {"type": "Point", "coordinates": [113.2202054, 23.0904033]}}, {"type": "Feature", "properties": {"kind": "police", "kind_label": "派出所", "name": "沙面派出所"}, "geometry": {"type": "Point", "coordinates": [113.2419179, 23.1099703]}}, {"type": "Feature", "properties": {"kind": "police", "kind_label": "派出所", "name": "派出所"}, "geometry": {"type": "Point", "coordinates": [113.2768962, 23.1287977]}}, {"type": "Feature", "properties": {"kind": "police", "kind_label": "派出所", "name": "东漖派出所"}, "geometry": {"type": "Point", "coordinates": [113.220425, 23.084967]}}, {"type": "Feature", "properties": {"kind": "police", "kind_label": "派出所", "name": "昌岗派出所"}, "geometry": {"type": "Point", "coordinates": [113.2705605, 23.0799242]}}, {"type": "Feature", "properties": {"kind": "police", "kind_label": "派出所", "name": "金花派出所"}, "geometry": {"type": "Point", "coordinates": [113.2444701, 23.1301381]}}, {"type": "Feature", "properties": {"kind": "police", "kind_label": "派出所", "name": "沙园派出所"}, "geometry": {"type": "Point", "coordinates": [113.2605809, 23.093143]}}, {"type": "Feature", "properties": {"kind": "police", "kind_label": "派出所", "name": "冲口派出所"}, "geometry": {"type": "Point", "coordinates": [113.2341026, 23.0887741]}}, {"type": "Feature", "properties": {"kind": "police", "kind_label": "派出所", "name": "派出所"}, "geometry": {"type": "Point", "coordinates": [113.2554755, 23.1484543]}}, {"type": "Feature", "properties": {"kind": "police", "kind_label": "派出所", "name": "派出所"}, "geometry": {"type": "Point", "coordinates": [113.2543193, 23.1449007]}}, {"type": "Feature", "properties": {"kind": "police", "kind_label": "派出所", "name": "广东省公安厅"}, "geometry": {"type": "Point", "coordinates": [113.2716471, 23.1389498]}}, {"type": "Feature", "properties": {"kind": "police", "kind_label": "派出所", "name": "广州市公安局越秀区分局洪桥派出所"}, "geometry": {"type": "Point", "coordinates": [113.2646287, 23.1379881]}}, {"type": "Feature", "properties": {"kind": "police", "kind_label": "派出所", "name": "广州市公安局越秀分局"}, "geometry": {"type": "Point", "coordinates": [113.2572977, 23.1346945]}}, {"type": "Feature", "properties": {"kind": "police", "kind_label": "派出所", "name": "越秀公园派出所"}, "geometry": {"type": "Point", "coordinates": [113.2602122, 23.141091]}}, {"type": "Feature", "properties": {"kind": "police", "kind_label": "派出所", "name": "广东省戒毒管理局"}, "geometry": {"type": "Point", "coordinates": [113.2727814, 23.1348679]}}, {"type": "Feature", "properties": {"kind": "police", "kind_label": "派出所", "name": "交通警察荔湾分队"}, "geometry": {"type": "Point", "coordinates": [113.2416783, 23.1142618]}}, {"type": "Feature", "properties": {"kind": "police", "kind_label": "派出所", "name": "广州市水警分局"}, "geometry": {"type": "Point", "coordinates": [113.2513214, 23.1099751]}}, {"type": "Feature", "properties": {"kind": "police", "kind_label": "派出所", "name": "广州市海珠区海幢街道综合执法大队"}, "geometry": {"type": "Point", "coordinates": [113.2596465, 23.1011206]}}, {"type": "Feature", "properties": {"kind": "police", "kind_label": "派出所", "name": "江南中派出所"}, "geometry": {"type": "Point", "coordinates": [113.2639695, 23.0995729]}}, {"type": "Feature", "properties": {"kind": "police", "kind_label": "派出所", "name": "广州市公安局海珠分局"}, "geometry": {"type": "Point", "coordinates": [113.2549005, 23.1073409]}}, {"type": "Feature", "properties": {"kind": "police", "kind_label": "派出所", "name": "海幢派出所"}, "geometry": {"type": "Point", "coordinates": [113.2596538, 23.1088759]}}, {"type": "Feature", "properties": {"kind": "police", "kind_label": "派出所", "name": "派出所"}, "geometry": {"type": "Point", "coordinates": [113.2548624, 23.1074493]}}, {"type": "Feature", "properties": {"kind": "police", "kind_label": "派出所", "name": "派出所"}, "geometry": {"type": "Point", "coordinates": [113.2546626, 23.1072601]}}, {"type": "Feature", "properties": {"kind": "police", "kind_label": "派出所", "name": "派出所"}, "geometry": {"type": "Point", "coordinates": [113.2549662, 23.1071941]}}, {"type": "Feature", "properties": {"kind": "police", "kind_label": "派出所", "name": "派出所"}, "geometry": {"type": "Point", "coordinates": [113.2305933, 23.1192558]}}, {"type": "Feature", "properties": {"kind": "police", "kind_label": "派出所", "name": "花地口派出所"}, "geometry": {"type": "Point", "coordinates": [113.2386062, 23.0971584]}}]}